     2.10           G: GLONASS NAV DATA                     RINEX VERSION / TYPE
teqc  2015Jun23                         20211125 01:25:49UTCPGM / RUN BY / DATE
Linux 2.4.21-27.ELsmp|Opteron|gcc -static|Linux x86_64|=+   COMMENT
  2021    11     1   -0.000000000000D+00                    CORR TO SYSTEM TIME
                                                            END OF HEADER
15 21 11  2  6 15  0.0 1.004664227366D-04-0.000000000000D+00 2.160000000000D+04
   -1.105542871094D+04 2.065124511719D-01 3.725290298462D-09 0.000000000000D+00
    2.295728271484D+04-8.354187011719D-02 9.313225746155D-10 0.000000000000D+00
    1.203254882812D+03 3.561045646667D+00-9.313225746155D-10 0.000000000000D+00
16 21 11  2  6 15  0.0-2.429820597172D-05-9.094947017729D-13 2.160000000000D+04
    4.627163085938D+02-7.965764999390D-01 2.793967723846D-09 0.000000000000D+00
    1.946785595703D+04 2.104369163513D+00 2.793967723846D-09-1.000000000000D+00
   -1.641607080078D+04 2.488062858582D+00 9.313225746155D-10 0.000000000000D+00
18 21 11  2  6 15  0.0 9.580142796040D-05 9.094947017729D-13 2.160000000000D+04
   -1.854341308594D+03-1.576931953430D+00 1.862645149231D-09 0.000000000000D+00
    1.402186035156D+04-2.451850891113D+00 9.313225746155D-10-3.000000000000D+00
   -2.122091015625D+04-1.477170944214D+00 1.862645149231D-09 0.000000000000D+00
20 21 11  2  6 15  0.0-5.860347300768D-05-0.000000000000D+00 2.160000000000D+04
    1.633025244141D+04 9.468708038330D-01 2.793967723846D-09 0.000000000000D+00
    1.688277587891D+04 1.016487121582D+00 4.656612873077D-09 2.000000000000D+00
    9.998418945312D+03-3.263390541077D+00-9.313225746155D-10 0.000000000000D+00
 4 21 11  2  6 15  0.0 1.122681424022D-04 1.818989403546D-12 2.217000000000D+04
   -1.300910058594D+04-2.631007194519D+00 9.313225746155D-10 0.000000000000D+00
    1.030787744141D+04 3.386516571045D-01-9.313225746155D-10 6.000000000000D+00
    1.938318066406D+04-1.948891639709D+00-2.793967723846D-09 0.000000000000D+00
 4 21 11  2  6 45  0.0 1.122718676925D-04 1.818989403546D-12 2.340000000000D+04
   -1.720262402344D+04-1.993797302246D+00 9.313225746155D-10 0.000000000000D+00
    1.117372314453D+04 5.905208587646D-01-1.862645149231D-09 6.000000000000D+00
    1.517195507812D+04-2.699974060059D+00-1.862645149231D-09 0.000000000000D+00
19 21 11  2  6 45  0.0-1.654280349612D-04-9.094947017729D-13 2.340000000000D+04
    7.225546875000D+03-1.246436119080D+00 2.793967723846D-09 0.000000000000D+00
    1.890247119141D+04-1.737860679626D+00 2.793967723846D-09 3.000000000000D+00
   -1.551729345703D+04-2.697924613953D+00 1.862645149231D-09 0.000000000000D+00
14 21 11  2  6 45  0.0 7.056538015604D-05 0.000000000000D+00 2.340000000000D+04
   -1.278831835938D+04 8.652114868164D-01 0.000000000000D+00 0.000000000000D+00
    8.132885742188D+03-2.670804977417D+00-1.862645149231D-09-7.000000000000D+00
    2.053699462891D+04 1.596313476562D+00-2.793967723846D-09 0.000000000000D+00
15 21 11  2  6 45  0.0 1.004664227366D-04-0.000000000000D+00 2.340000000000D+04
   -1.044015332031D+04 4.362592697144D-01 2.793967723846D-09 0.000000000000D+00
    2.204534130859D+04-9.345693588257D-01-0.000000000000D+00 0.000000000000D+00
    7.483834472656D+03 3.372096061707D+00-9.313225746155D-10 0.000000000000D+00
16 21 11  2  6 45  0.0-2.430099993944D-05-9.094947017729D-13 2.340000000000D+04
   -5.163896484375D+02-3.110580444336D-01 3.725290298462D-09 0.000000000000D+00
    2.277360644531D+04 1.528362274170D+00 1.862645149231D-09-1.000000000000D+00
   -1.135782275391D+04 3.095712661743D+00 9.313225746155D-10 0.000000000000D+00
18 21 11  2  6 45  0.0 9.580329060555D-05 9.094947017729D-13 2.340000000000D+04
   -5.183400878906D+03-2.099437713623D+00 9.313225746155D-10 0.000000000000D+00
    9.644338867188D+03-2.364562034607D+00 0.000000000000D+00-3.000000000000D+00
   -2.302442822266D+04-5.135860443115D-01 2.793967723846D-09 0.000000000000D+00
20 21 11  2  6 45  0.0-5.860440433025D-05-0.000000000000D+00 2.340000000000D+04
    1.770241113281D+04 5.353889465332D-01 3.725290298462D-09 0.000000000000D+00
    1.799142871094D+04 2.271699905396D-01 4.656612873077D-09 2.000000000000D+00
    3.814345214844D+03-3.563288688660D+00-0.000000000000D+00 0.000000000000D+00
 9 21 11  2  6 45  0.0 2.140179276466D-05 1.818989403546D-12 2.469000000000D+04
    8.058346191406D+03-7.885093688965D-01 1.862645149231D-09 0.000000000000D+00
    1.068400683594D+04 2.867744445801D+00 2.793967723846D-09-2.000000000000D+00
   -2.171007470703D+04 1.110976219177D+00 2.793967723846D-09 0.000000000000D+00
 9 21 11  2  7 15  0.0 2.140551805496D-05 1.818989403546D-12 2.520000000000D+04
    7.066796386719D+03-3.207092285156D-01 2.793967723846D-09 0.000000000000D+00
    1.561986572266D+04 2.568397521973D+00 1.862645149231D-09-2.000000000000D+00
   -1.889688330078D+04 1.994309425354D+00 1.862645149231D-09 0.000000000000D+00
 4 21 11  2  7 15  0.0 1.122755929828D-04 1.818989403546D-12 2.520000000000D+04
   -2.009150048828D+04-1.198571205139D+00 0.000000000000D+00 0.000000000000D+00
    1.229782031250D+04 6.171979904175D-01-2.793967723846D-09 6.000000000000D+00
    9.788510253906D+03-3.242865562439D+00-9.313225746155D-10 0.000000000000D+00
16 21 11  2  7 15  0.0-2.430379390717D-05-9.094947017729D-13 2.520000000000D+04
   -7.535727539062D+02 1.471710205078D-02 3.725290298462D-09 0.000000000000D+00
    2.484798486328D+04 7.501869201660D-01 9.313225746155D-10-1.000000000000D+00
   -5.415912597656D+03 3.463315010071D+00 0.000000000000D+00 0.000000000000D+00
15 21 11  2  7 15  0.0 1.004654914141D-04-0.000000000000D+00 2.520000000000D+04
   -9.634355957031D+03 4.184293746948D-01 1.862645149231D-09 0.000000000000D+00
    1.961046191406D+04-1.756294250488D+00-9.313225746155D-10 0.000000000000D+00
    1.318619482422D+04 2.922811508179D+00-1.862645149231D-09 0.000000000000D+00
19 21 11  2  7 15  0.0-1.654308289289D-04-9.094947017729D-13 2.520000000000D+04
    4.359503906250D+03-1.929104804993D+00 2.793967723846D-09 0.000000000000D+00
    1.558321826172D+04-1.901533126831D+00 1.862645149231D-09 3.000000000000D+00
   -1.971042089844D+04-1.930857658386D+00 1.862645149231D-09 0.000000000000D+00
20 21 11  2  7 15  0.0-5.860533565283D-05-0.000000000000D+00 2.520000000000D+04
    1.812210205078D+04-1.006460189819D-01 4.656612873077D-09 0.000000000000D+00
    1.777569189453D+04-4.377918243408D-01 3.725290298462D-09 2.000000000000D+00
   -2.664039550781D+03-3.588263511658D+00 0.000000000000D+00 0.000000000000D+00
 5 21 11  2  7 15  0.0 8.174031972885D-05 9.094947017729D-13 2.550000000000D+04
   -5.239494628906D+03-2.745368957520D+00 9.313225746155D-10 0.000000000000D+00
    1.265151904297D+04 1.074004173279D+00-9.313225746155D-10 1.000000000000D+00
    2.151681005859D+04-1.302624702454D+00-2.793967723846D-09 0.000000000000D+00
 9 21 11  2  7 45  0.0 2.140924334526D-05 1.818989403546D-12 2.700000000000D+04
    6.846814941406D+03 5.277729034424D-02 3.725290298462D-09 0.000000000000D+00
    1.976996435547D+04 2.003301620483D+00 9.313225746155D-10-2.000000000000D+00
   -1.462384619141D+04 2.722579002380D+00 9.313225746155D-10 0.000000000000D+00
 4 21 11  2  7 45  0.0 1.122783869505D-04 1.818989403546D-12 2.700000000000D+04
   -2.148933251953D+04-3.565893173218D-01-0.000000000000D+00 0.000000000000D+00
    1.324236279297D+04 3.899641036987D-01-2.793967723846D-09 6.000000000000D+00
    3.648297851562D+03-3.535308837891D+00-0.000000000000D+00 0.000000000000D+00
 5 21 11  2  7 45  0.0 8.174125105143D-05 9.094947017729D-13 2.700000000000D+04
   -9.701735839844D+03-2.179222106934D+00 9.313225746155D-10 0.000000000000D+00
    1.478869238281D+04 1.263709068298D+00-1.862645149231D-09 1.000000000000D+00
    1.837022851562D+04-2.170941352844D+00-1.862645149231D-09 0.000000000000D+00
15 21 11  2  7 45  0.0 1.004654914141D-04-0.000000000000D+00 2.700000000000D+04
   -9.068992187500D+03 1.766672134399D-01 9.313225746155D-10 0.000000000000D+00
    1.580776123047D+04-2.436909675598D+00-1.862645149231D-09 0.000000000000D+00
    1.787041162109D+04 2.248202323914D+00-1.862645149231D-09 0.000000000000D+00
16 21 11  2  7 45  0.0-2.430658787489D-05-9.094947017729D-13 2.700000000000D+04
   -5.963081054688D+02 1.204061508179D-01 3.725290298462D-09 0.000000000000D+00
    2.541148242188D+04-1.320610046387D-01-0.000000000000D+00-1.000000000000D+00
    9.479277343750D+02 3.561331748962D+00-0.000000000000D+00 0.000000000000D+00
19 21 11  2  7 45  0.0-1.654336228967D-04-9.094947017729D-13 2.700000000000D+04
    3.476362304688D+02-2.500801086426D+00 9.313225746155D-10 0.000000000000D+00
    1.222655957031D+04-1.784090042114D+00 0.000000000000D+00 3.000000000000D+00
   -2.237863818359D+04-1.014605522156D+00 2.793967723846D-09 0.000000000000D+00
20 21 11  2  7 45  0.0-5.860533565283D-05-0.000000000000D+00 2.700000000000D+04
    1.725453906250D+04-8.783407211304D-01 4.656612873077D-09 0.000000000000D+00
    1.654386328125D+04-8.899106979370D-01 2.793967723846D-09 2.000000000000D+00
   -8.936764160156D+03-3.336222648621D+00 9.313225746155D-10 0.000000000000D+00
 9 21 11  2  8 15  0.0 2.141389995813D-05 2.728484105319D-12 2.880000000000D+04
    7.149413085938D+03 2.484264373779D-01 4.656612873077D-09 0.000000000000D+00
    2.271397900391D+04 1.242908477783D+00 0.000000000000D+00-2.000000000000D+00
   -9.222396972656D+03 3.240071296692D+00 0.000000000000D+00 0.000000000000D+00
 4 21 11  2  8 15  0.0 1.122811809182D-04 1.818989403546D-12 2.880000000000D+04
   -2.141697802734D+04 4.162797927856D-01-9.313225746155D-10 0.000000000000D+00
    1.355849072266D+04-7.446861267090D-02-2.793967723846D-09 6.000000000000D+00
   -2.774122558594D+03-3.554334640503D+00 0.000000000000D+00 0.000000000000D+00
 5 21 11  2  8 15  0.0 8.174218237400D-05 9.094947017729D-13 2.880000000000D+04
   -1.299426806641D+04-1.463058471680D+00 0.000000000000D+00 0.000000000000D+00
    1.705224169922D+04 1.207114219666D+00-2.793967723846D-09 1.000000000000D+00
    1.380222851562D+04-2.871680259705D+00-1.862645149231D-09 0.000000000000D+00
